[{"OBJECT_NAME":"STARLINK-2512","OBJECT_ID":"2021-036AV","EPOCH":"2026-03-10T00:00:02.999808","MEAN_MOTION":15.25887089,"ECCENTRICITY":0.00016555,"INCLINATION":53.1399,"RA_OF_ASC_NODE":99.5161,"ARG_OF_PERICENTER":88.0612,"MEAN_ANOMALY":12.0977,"EPHEMERIS_TYPE":0,"CLASSIFICATION_TYPE":"U","NORAD_CAT_ID":48319,"ELEMENT_SET_NO":999,"REV_AT_EPOCH":574,"BSTAR":0.065509139,"MEAN_MOTION_DOT":0.01872924,"MEAN_MOTION_DDOT":0},{"OBJECT_NAME":"ARIANE 40+3 R\/B","OBJECT_ID":"1995-033D","EPOCH":"2026-03-09T22:16:15.098592","MEAN_MOTION":15.47222333,"ECCENTRICITY":0.00073585,"INCLINATION":98.2878,"RA_OF_ASC_NODE":273.1988,"ARG_OF_PERICENTER":36.2046,"MEAN_ANOMALY":323.9698,"EPHEMERIS_TYPE":0,"CLASSIFICATION_TYPE":"U","NORAD_CAT_ID":23608,"ELEMENT_SET_NO":999,"REV_AT_EPOCH":66682,"BSTAR":0.0008304958,"MEAN_MOTION_DOT":0.0004236,"MEAN_MOTION_DDOT":0}]
